{
  "norad_id": 65024,
  "name": "STARLINK-34773",
  "history": [
    {
      "epoch": "2026-03-28T20:06:00.644544Z",
      "apogee_km": 475.9549051175318,
      "perigee_km": 474.3184804251714,
      "latitude_deg": -3.16129457316734e-05,
      "longitude_deg": 77.35006992424962,
      "height_km": 476.21069457603073,
      "semi_major_axis_km": 6853.273692771351,
      "eccentricity": 0.00011939,
      "inclination_deg": 53.1599,
      "raan_deg": 205.105,
      "arg_perigee_deg": 102.4061,
      "mean_anomaly_deg": 257.7073,
      "mean_motion_rev_day": 15.3022625
    },
    {
      "epoch": "2026-03-29T00:48:10.515456Z",
      "apogee_km": 475.9506029588838,
      "perigee_km": 474.4675388691394,
      "latitude_deg": 5.4006192202759365e-06,
      "longitude_deg": 5.705733906751814,
      "height_km": 476.1915063344985,
      "semi_major_axis_km": 6853.346070914012,
      "eccentricity": 0.0001082,
      "inclination_deg": 53.1601,
      "raan_deg": 204.1949,
      "arg_perigee_deg": 96.5111,
      "mean_anomaly_deg": 263.6013,
      "mean_motion_rev_day": 15.30202009
    },
    {
      "epoch": "2026-03-29T22:44:55.326048Z",
      "apogee_km": 476.08420633712467,
      "perigee_km": 474.2752048595157,
      "latitude_deg": 4.360635991309441e-06,
      "longitude_deg": 31.369541608121036,
      "height_km": 476.0719225576661,
      "semi_major_axis_km": 6853.31670559832,
      "eccentricity": 0.00013198,
      "inclination_deg": 53.159,
      "raan_deg": 199.9467,
      "arg_perigee_deg": 89.6398,
      "mean_anomaly_deg": 270.4754,
      "mean_motion_rev_day": 15.30211844
    },
    {
      "epoch": "2026-03-30T12:51:23.793120Z",
      "apogee_km": 476.3043668474493,
      "perigee_km": 474.0570269082882,
      "latitude_deg": 3.6920880769473054e-05,
      "longitude_deg": 176.4421625390975,
      "height_km": 477.1585481328254,
      "semi_major_axis_km": 6853.317696877868,
      "eccentricity": 0.00016396,
      "inclination_deg": 53.1592,
      "raan_deg": 197.2173,
      "arg_perigee_deg": 163.7567,
      "mean_anomaly_deg": 196.3487,
      "mean_motion_rev_day": 15.30211512
    },
    {
      "epoch": "2026-03-30T15:59:30.730560Z",
      "apogee_km": 475.8582710717874,
      "perigee_km": 474.6968914368481,
      "latitude_deg": -5.4352745675258035e-05,
      "longitude_deg": 128.67682811548698,
      "height_km": 476.20512252959526,
      "semi_major_axis_km": 6853.414581254317,
      "eccentricity": 8.473e-05,
      "inclination_deg": 53.1588,
      "raan_deg": 196.6097,
      "arg_perigee_deg": 92.8653,
      "mean_anomaly_deg": 267.2444,
      "mean_motion_rev_day": 15.30179064
    },
    {
      "epoch": "2026-03-30T23:49:47.623584Z",
      "apogee_km": 476.0118873915244,
      "perigee_km": 474.588702602844,
      "latitude_deg": -2.978251925236548e-06,
      "longitude_deg": 9.267582887595577,
      "height_km": 476.12600216436925,
      "semi_major_axis_km": 6853.437294997184,
      "eccentricity": 0.00010383,
      "inclination_deg": 53.1591,
      "raan_deg": 195.0927,
      "arg_perigee_deg": 84.1456,
      "mean_anomaly_deg": 275.9663,
      "mean_motion_rev_day": 15.30171457
    }
  ]
}